[{"OBJECT_NAME":"DMSP 5D-3 F16 (USA 172)","OBJECT_ID":"2003-048A","EPOCH":"2026-03-29T03:59:36.343104","MEAN_MOTION":14.14469726,"ECCENTRICITY":0.0007364,"INCLINATION":98.9968,"RA_OF_ASC_NODE":111.4393,"ARG_OF_PERICENTER":22.6894,"MEAN_ANOMALY":64.2657,"EPHEMERIS_TYPE":0,"CLASSIFICATION_TYPE":"U","NORAD_CAT_ID":28054,"ELEMENT_SET_NO":999,"REV_AT_EPOCH":15817,"BSTAR":0.00011902,"MEAN_MOTION_DOT":1.83e-6,"MEAN_MOTION_DDOT":0},{"OBJECT_NAME":"METEOSAT-9 (MSG-2)","OBJECT_ID":"2005-049B","EPOCH":"2026-03-28T13:17:21.413184","MEAN_MOTION":1.00272852,"ECCENTRICITY":1.89e-5,"INCLINATION":9.1814,"RA_OF_ASC_NODE":54.9434,"ARG_OF_PERICENTER":125.5968,"MEAN_ANOMALY":250.3933,"EPHEMERIS_TYPE":0,"CLASSIFICATION_TYPE":"U","NORAD_CAT_ID":28912,"ELEMENT_SET_NO":999,"REV_AT_EPOCH":619,"BSTAR":0,"MEAN_MOTION_DOT":1.11e-6,"MEAN_MOTION_DDOT":0},{"OBJECT_NAME":"DMSP 5D-3 F17 (USA 191)","OBJECT_ID":"2006-050A","EPOCH":"2026-03-29T02:58:29.597088","MEAN_MOTION":14.14972726,"ECCENTRICITY":0.0008945,"INCLINATION":98.7409,"RA_OF_ASC_NODE":96.3249,"ARG_OF_PERICENTER":286.8612,"MEAN_ANOMALY":73.158,"EPHEMERIS_TYPE":0,"CLASSIFICATION_TYPE":"U","NORAD_CAT_ID":29522,"ELEMENT_SET_NO":999,"REV_AT_EPOCH":110,"BSTAR":0.00013871,"MEAN_MOTION_DOT":2.25e-6,"MEAN_MOTION_DDOT":0},{"OBJECT_NAME":"FENGYUN 3A","OBJECT_ID":"2008-026A","EPOCH":"2026-03-29T02:50:37.072032","MEAN_MOTION":14.19552207,"ECCENTRICITY":0.0008846,"INCLINATION":98.6822,"RA_OF_ASC_NODE":30.4772,"ARG_OF_PERICENTER":6.1248,"MEAN_ANOMALY":354.0035,"EPHEMERIS_TYPE":0,"CLASSIFICATION_TYPE":"U","NORAD_CAT_ID":32958,"ELEMENT_SET_NO":999,"REV_AT_EPOCH":92404,"BSTAR":6.7738e-5,"MEAN_MOTION_DOT":1.0e-6,"MEAN_MOTION_DDOT":0},{"OBJECT_NAME":"GOES 14","OBJECT_ID":"2009-033A","EPOCH":"2026-03-29T05:19:50.388672","MEAN_MOTION":1.00108852,"ECCENTRICITY":0.0001735,"INCLINATION":1.4842,"RA_OF_ASC_NODE":84.0175,"ARG_OF_PERICENTER":278.8459,"MEAN_ANOMALY":90.5987,"EPHEMERIS_TYPE":0,"CLASSIFICATION_TYPE":"U","NORAD_CAT_ID":35491,"ELEMENT_SET_NO":999,"REV_AT_EPOCH":579,"BSTAR":0,"MEAN_MOTION_DOT":5.2e-7,"MEAN_MOTION_DDOT":0},{"OBJECT_NAME":"DMSP 5D-3 F18 (USA 210)","OBJECT_ID":"2009-057A","EPOCH":"2026-03-29T05:32:17.117952","MEAN_MOTION":14.14848674,"ECCENTRICITY":0.0012049,"INCLINATION":98.899,"RA_OF_ASC_NODE":69.1985,"ARG_OF_PERICENTER":115.4552,"MEAN_ANOMALY":244.7869,"EPHEMERIS_TYPE":0,"CLASSIFICATION_TYPE":"U","NORAD_CAT_ID":35951,"ELEMENT_SET_NO":999,"REV_AT_EPOCH":84828,"BSTAR":0.00019648,"MEAN_MOTION_DOT":3.35e-6,"MEAN_MOTION_DDOT":0},{"OBJECT_NAME":"EWS-G2 (GOES 15)","OBJECT_ID":"2010-008A","EPOCH":"2026-03-29T03:03:59.628672","MEAN_MOTION":1.00270431,"ECCENTRICITY":0.0002709,"INCLINATION":1.069,"RA_OF_ASC_NODE":84.4537,"ARG_OF_PERICENTER":19.253,"MEAN_ANOMALY":192.1222,"EPHEMERIS_TYPE":0,"CLASSIFICATION_TYPE":"U","NORAD_CAT_ID":36411,"ELEMENT_SET_NO":999,"REV_AT_EPOCH":5883,"BSTAR":0,"MEAN_MOTION_DOT":4.0e-8,"MEAN_MOTION_DDOT":0},{"OBJECT_NAME":"COMS 1","OBJECT_ID":"2010-032A","EPOCH":"2026-03-28T20:31:40.056672","MEAN_MOTION":1.00272704,"ECCENTRICITY":0.0001054,"INCLINATION":4.5984,"RA_OF_ASC_NODE":76.4793,"ARG_OF_PERICENTER":282.6583,"MEAN_ANOMALY":263.1816,"EPHEMERIS_TYPE":0,"CLASSIFICATION_TYPE":"U","NORAD_CAT_ID":36744,"ELEMENT_SET_NO":999,"REV_AT_EPOCH":5028,"BSTAR":0,"MEAN_MOTION_DOT":-3.6e-6,"MEAN_MOTION_DDOT":0},{"OBJECT_NAME":"FENGYUN 3B","OBJECT_ID":"2010-059A","EPOCH":"2026-03-29T04:25:27.680160","MEAN_MOTION":14.14823213,"ECCENTRICITY":0.0022929,"INCLINATION":98.9731,"RA_OF_ASC_NODE":133.826,"ARG_OF_PERICENTER":55.241,"MEAN_ANOMALY":32.9475,"EPHEMERIS_TYPE":0,"CLASSIFICATION_TYPE":"U","NORAD_CAT_ID":37214,"ELEMENT_SET_NO":999,"REV_AT_EPOCH":79611,"BSTAR":9.4548e-5,"MEAN_MOTION_DOT":1.38e-6,"MEAN_MOTION_DDOT":0},{"OBJECT_NAME":"SUOMI NPP","OBJECT_ID":"2011-061A","EPOCH":"2026-03-29T03:02:42.876960","MEAN_MOTION":14.19498561,"ECCENTRICITY":0.0001693,"INCLINATION":98.7894,"RA_OF_ASC_NODE":29.5773,"ARG_OF_PERICENTER":158.3691,"MEAN_ANOMALY":201.7557,"EPHEMERIS_TYPE":0,"CLASSIFICATION_TYPE":"U","NORAD_CAT_ID":37849,"ELEMENT_SET_NO":999,"REV_AT_EPOCH":74708,"BSTAR":5.7173e-5,"MEAN_MOTION_DOT":7.6e-7,"MEAN_MOTION_DDOT":0},{"OBJECT_NAME":"METEOSAT-10 (MSG-3)","OBJECT_ID":"2012-035B","EPOCH":"2026-03-29T04:28:36.514272","MEAN_MOTION":1.00271476,"ECCENTRICITY":0.0002445,"INCLINATION":4.4835,"RA_OF_ASC_NODE":61.3515,"ARG_OF_PERICENTER":285.5286,"MEAN_ANOMALY":266.9163,"EPHEMERIS_TYPE":0,"CLASSIFICATION_TYPE":"U","NORAD_CAT_ID":38552,"ELEMENT_SET_NO":999,"REV_AT_EPOCH":5005,"BSTAR":0,"MEAN_MOTION_DOT":-2.2e-7,"MEAN_MOTION_DDOT":0},{"OBJECT_NAME":"METOP-B","OBJECT_ID":"2012-049A","EPOCH":"2026-03-29T03:42:24.493824","MEAN_MOTION":14.21424584,"ECCENTRICITY":0.0002057,"INCLINATION":98.6599,"RA_OF_ASC_NODE":141.2176,"ARG_OF_PERICENTER":189.0347,"MEAN_ANOMALY":171.0794,"EPHEMERIS_TYPE":0,"CLASSIFICATION_TYPE":"U","NORAD_CAT_ID":38771,"ELEMENT_SET_NO":999,"REV_AT_EPOCH":70189,"BSTAR":7.5061e-5,"MEAN_MOTION_DOT":1.21e-6,"MEAN_MOTION_DDOT":0},{"OBJECT_NAME":"INSAT-3D","OBJECT_ID":"2013-038B","EPOCH":"2026-03-28T23:57:27.745056","MEAN_MOTION":1.00268917,"ECCENTRICITY":0.0001579,"INCLINATION":1.7195,"RA_OF_ASC_NODE":83.5474,"ARG_OF_PERICENTER":246.6189,"MEAN_ANOMALY":345.1445,"EPHEMERIS_TYPE":0,"CLASSIFICATION_TYPE":"U","NORAD_CAT_ID":39216,"ELEMENT_SET_NO":999,"REV_AT_EPOCH":4627,"BSTAR":0,"MEAN_MOTION_DOT":-3.57e-6,"MEAN_MOTION_DDOT":0},{"OBJECT_NAME":"FENGYUN 3C","OBJECT_ID":"2013-052A","EPOCH":"2026-03-29T04:22:10.104096","MEAN_MOTION":14.15735115,"ECCENTRICITY":0.0013517,"INCLINATION":98.4924,"RA_OF_ASC_NODE":65.7595,"ARG_OF_PERICENTER":252.6343,"MEAN_ANOMALY":107.3353,"EPHEMERIS_TYPE":0,"CLASSIFICATION_TYPE":"U","NORAD_CAT_ID":39260,"ELEMENT_SET_NO":999,"REV_AT_EPOCH":64724,"BSTAR":9.5943e-5,"MEAN_MOTION_DOT":1.47e-6,"MEAN_MOTION_DDOT":0},{"OBJECT_NAME":"METEOR-M 2","OBJECT_ID":"2014-037A","EPOCH":"2026-03-29T04:21:48.113568","MEAN_MOTION":14.21437477,"ECCENTRICITY":0.0004541,"INCLINATION":98.5054,"RA_OF_ASC_NODE":66.7825,"ARG_OF_PERICENTER":271.4017,"MEAN_ANOMALY":88.6641,"EPHEMERIS_TYPE":0,"CLASSIFICATION_TYPE":"U","NORAD_CAT_ID":40069,"ELEMENT_SET_NO":999,"REV_AT_EPOCH":60795,"BSTAR":0.00017657,"MEAN_MOTION_DOT":3.44e-6,"MEAN_MOTION_DDOT":0},{"OBJECT_NAME":"HIMAWARI-8","OBJECT_ID":"2014-060A","EPOCH":"2026-03-28T22:17:57.739200","MEAN_MOTION":1.00270447,"ECCENTRICITY":7.79e-5,"INCLINATION":0.0225,"RA_OF_ASC_NODE":110.339,"ARG_OF_PERICENTER":227.2731,"MEAN_ANOMALY":323.8726,"EPHEMERIS_TYPE":0,"CLASSIFICATION_TYPE":"U","NORAD_CAT_ID":40267,"ELEMENT_SET_NO":999,"REV_AT_EPOCH":4195,"BSTAR":0,"MEAN_MOTION_DOT":-2.95e-6,"MEAN_MOTION_DDOT":0},{"OBJECT_NAME":"FENGYUN 2G","OBJECT_ID":"2014-090A","EPOCH":"2026-03-28T22:06:38.552256","MEAN_MOTION":1.0026352,"ECCENTRICITY":0.0001775,"INCLINATION":5.4366,"RA_OF_ASC_NODE":73.7708,"ARG_OF_PERICENTER":147.9858,"MEAN_ANOMALY":35.6831,"EPHEMERIS_TYPE":0,"CLASSIFICATION_TYPE":"U","NORAD_CAT_ID":40367,"ELEMENT_SET_NO":999,"REV_AT_EPOCH":4119,"BSTAR":0,"MEAN_MOTION_DOT":-3.15e-6,"MEAN_MOTION_DDOT":0}]
